<?xml version="1.0" encoding="UTF-8"?>
<kml xmlns="http://www.opengis.net/kml/2.2" xmlns:gx="http://www.google.com/kml/ext/2.2"><Document>
<name>Henry and Polly: Missouri River to Henry's land, 1832</name>
<description>Two candidate routes along the highest ground (USGS elevation, computed 3 Oct 2026). Terrain-based, not documented. Double-click a tour to fly it at about 800 ft.</description>
<gx:Tour><name>Fly from Rocheport (likeliest)</name><gx:Playlist><gx:FlyTo><gx:duration>1.5</gx:duration><gx:flyToMode>bounce</gx:flyToMode><Camera><longitude>-92.56400</longitude><latitude>38.97900</latitude><altitude>250</altitude><heading>55</heading><tilt>72</tilt><altitudeMode>relativeToGround</altitudeMode></Camera></gx:FlyTo><gx:Wait><gx:duration>2.5</gx:duration></gx:Wait><gx:FlyTo><gx:duration>25.9</gx:duration><gx:flyToMode>smooth</gx:flyToMode><Camera><longitude>-92.56250</longitude><latitude>39.00000</latitude><altitude>250</altitude><heading>74</heading><tilt>72</tilt><altitudeMode>relativeToGround</altitudeMode></Camera></gx:FlyTo><gx:FlyTo><gx:duration>18.0</gx:duration><gx:flyToMode>smooth</gx:flyToMode><Camera><longitude>-92.54375</longitude><latitude>39.00000</latitude><altitude>250</altitude><heading>42</heading><tilt>72</tilt><altitudeMode>relativeToGround</altitudeMode></Camera></gx:FlyTo><gx:FlyTo><gx:duration>18.0</gx:duration><gx:flyToMode>smooth</gx:flyToMode><Camera><longitude>-92.52500</longitude><latitude>39.00000</latitude><altitude>250</altitude><heading>25</heading><tilt>72</tilt><altitudeMode>relativeToGround</altitudeMode></Camera></gx:FlyTo><gx:FlyTo><gx:duration>23.7</gx:duration><gx:flyToMode>smooth</gx:flyToMode><Camera><longitude>-92.50625</longitude><latitude>39.01250</latitude><altitude>250</altitude><heading>15</heading><tilt>72</tilt><altitudeMode>relativeToGround</altitudeMode></Camera></gx:FlyTo><gx:FlyTo><gx:duration>31.4</gx:duration><gx:flyToMode>smooth</gx:flyToMode><Camera><longitude>-92.50000</longitude><latitude>39.03750</latitude><altitude>250</altitude><heading>15</heading><tilt>72</tilt><altitudeMode>relativeToGround</altitudeMode></Camera></gx:FlyTo><gx:FlyTo><gx:duration>33.1</gx:duration><gx:flyToMode>smooth</gx:flyToMode><Camera><longitude>-92.48750</longitude><latitude>39.06250</latitude><altitude>250</altitude><heading>11</heading><tilt>72</tilt><altitudeMode>relativeToGround</altitudeMode></Camera></gx:FlyTo><gx:FlyTo><gx:duration>31.4</gx:duration><gx:flyToMode>smooth</gx:flyToMode><Camera><longitude>-92.48125</longitude><latitude>39.08750</latitude><altitude>250</altitude><heading>7</heading><tilt>72</tilt><altitudeMode>relativeToGround</altitudeMode></Camera></gx:FlyTo><gx:FlyTo><gx:duration>31.4</gx:duration><gx:flyToMode>smooth</gx:flyToMode><Camera><longitude>-92.47500</longitude><latitude>39.11250</latitude><altitude>250</altitude><heading>7</heading><tilt>72</tilt><altitudeMode>relativeToGround</altitudeMode></Camera></gx:FlyTo><gx:FlyTo><gx:duration>31.4</gx:duration><gx:flyToMode>smooth</gx:flyToMode><Camera><longitude>-92.46875</longitude><latitude>39.13750</latitude><altitude>250</altitude><heading>7</heading><tilt>72</tilt><altitudeMode>relativeToGround</altitudeMode></Camera></gx:FlyTo><gx:FlyTo><gx:duration>30.8</gx:duration><gx:flyToMode>smooth</gx:flyToMode><Camera><longitude>-92.46875</longitude><latitude>39.16250</latitude><altitude>250</altitude><heading>11</heading><tilt>72</tilt><altitudeMode>relativeToGround</altitudeMode></Camera></gx:FlyTo><gx:FlyTo><gx:duration>31.4</gx:duration><gx:flyToMode>smooth</gx:flyToMode><Camera><longitude>-92.46250</longitude><latitude>39.18750</latitude><altitude>250</altitude><heading>4</heading><tilt>72</tilt><altitudeMode>relativeToGround</altitudeMode></Camera></gx:FlyTo><gx:FlyTo><gx:duration>31.4</gx:duration><gx:flyToMode>smooth</gx:flyToMode><Camera><longitude>-92.45625</longitude><latitude>39.21250</latitude><altitude>250</altitude><heading>0</heading><tilt>72</tilt><altitudeMode>relativeToGround</altitudeMode></Camera></gx:FlyTo><gx:FlyTo><gx:duration>31.4</gx:duration><gx:flyToMode>smooth</gx:flyToMode><Camera><longitude>-92.45000</longitude><latitude>39.23750</latitude><altitude>250</altitude><heading>0</heading><tilt>72</tilt><altitudeMode>relativeToGround</altitudeMode></Camera></gx:FlyTo><gx:FlyTo><gx:duration>31.4</gx:duration><gx:flyToMode>smooth</gx:flyToMode><Camera><longitude>-92.45625</longitude><latitude>39.26250</latitude><altitude>250</altitude><heading>7</heading><tilt>72</tilt><altitudeMode>relativeToGround</altitudeMode></Camera></gx:FlyTo><gx:FlyTo><gx:duration>30.8</gx:duration><gx:flyToMode>smooth</gx:flyToMode><Camera><longitude>-92.45625</longitude><latitude>39.28750</latitude><altitude>250</altitude><heading>7</heading><tilt>72</tilt><altitudeMode>relativeToGround</altitudeMode></Camera></gx:FlyTo><gx:FlyTo><gx:duration>31.4</gx:duration><gx:flyToMode>smooth</gx:flyToMode><Camera><longitude>-92.45000</longitude><latitude>39.31250</latitude><altitude>250</altitude><heading>7</heading><tilt>72</tilt><altitudeMode>relativeToGround</altitudeMode></Camera></gx:FlyTo><gx:FlyTo><gx:duration>31.4</gx:duration><gx:flyToMode>smooth</gx:flyToMode><Camera><longitude>-92.44375</longitude><latitude>39.33750</latitude><altitude>250</altitude><heading>4</heading><tilt>72</tilt><altitudeMode>relativeToGround</altitudeMode></Camera></gx:FlyTo><gx:FlyTo><gx:duration>30.8</gx:duration><gx:flyToMode>smooth</gx:flyToMode><Camera><longitude>-92.44375</longitude><latitude>39.36250</latitude><altitude>250</altitude><heading>4</heading><tilt>72</tilt><altitudeMode>relativeToGround</altitudeMode></Camera></gx:FlyTo><gx:FlyTo><gx:duration>31.4</gx:duration><gx:flyToMode>smooth</gx:flyToMode><Camera><longitude>-92.43750</longitude><latitude>39.38750</latitude><altitude>250</altitude><heading>4</heading><tilt>72</tilt><altitudeMode>relativeToGround</altitudeMode></Camera></gx:FlyTo><gx:FlyTo><gx:duration>30.8</gx:duration><gx:flyToMode>smooth</gx:flyToMode><Camera><longitude>-92.43750</longitude><latitude>39.41250</latitude><altitude>250</altitude><heading>4</heading><tilt>72</tilt><altitudeMode>relativeToGround</altitudeMode></Camera></gx:FlyTo><gx:Wait><gx:duration>2.5</gx:duration></gx:Wait><gx:FlyTo><gx:duration>30.8</gx:duration><gx:flyToMode>smooth</gx:flyToMode><Camera><longitude>-92.43750</longitude><latitude>39.43750</latitude><altitude>250</altitude><heading>0</heading><tilt>72</tilt><altitudeMode>relativeToGround</altitudeMode></Camera></gx:FlyTo><gx:FlyTo><gx:duration>31.4</gx:duration><gx:flyToMode>smooth</gx:flyToMode><Camera><longitude>-92.43125</longitude><latitude>39.46250</latitude><altitude>250</altitude><heading>353</heading><tilt>72</tilt><altitudeMode>relativeToGround</altitudeMode></Camera></gx:FlyTo><gx:FlyTo><gx:duration>30.8</gx:duration><gx:flyToMode>smooth</gx:flyToMode><Camera><longitude>-92.43125</longitude><latitude>39.48750</latitude><altitude>250</altitude><heading>346</heading><tilt>72</tilt><altitudeMode>relativeToGround</altitudeMode></Camera></gx:FlyTo><gx:FlyTo><gx:duration>31.4</gx:duration><gx:flyToMode>smooth</gx:flyToMode><Camera><longitude>-92.43750</longitude><latitude>39.51250</latitude><altitude>250</altitude><heading>342</heading><tilt>72</tilt><altitudeMode>relativeToGround</altitudeMode></Camera></gx:FlyTo><gx:FlyTo><gx:duration>31.4</gx:duration><gx:flyToMode>smooth</gx:flyToMode><Camera><longitude>-92.44375</longitude><latitude>39.53750</latitude><altitude>250</altitude><heading>346</heading><tilt>72</tilt><altitudeMode>relativeToGround</altitudeMode></Camera></gx:FlyTo><gx:FlyTo><gx:duration>33.0</gx:duration><gx:flyToMode>smooth</gx:flyToMode><Camera><longitude>-92.45625</longitude><latitude>39.56250</latitude><altitude>250</altitude><heading>0</heading><tilt>72</tilt><altitudeMode>relativeToGround</altitudeMode></Camera></gx:FlyTo><gx:FlyTo><gx:duration>33.0</gx:duration><gx:flyToMode>smooth</gx:flyToMode><Camera><longitude>-92.46875</longitude><latitude>39.58750</latitude><altitude>250</altitude><heading>26</heading><tilt>72</tilt><altitudeMode>relativeToGround</altitudeMode></Camera></gx:FlyTo><gx:Wait><gx:duration>2.5</gx:duration></gx:Wait><gx:FlyTo><gx:duration>30.8</gx:duration><gx:flyToMode>smooth</gx:flyToMode><Camera><longitude>-92.46875</longitude><latitude>39.61250</latitude><altitude>250</altitude><heading>57</heading><tilt>72</tilt><altitudeMode>relativeToGround</altitudeMode></Camera></gx:FlyTo><gx:Wait><gx:duration>2.5</gx:duration></gx:Wait><gx:Wait><gx:duration>2.5</gx:duration></gx:Wait><gx:FlyTo><gx:duration>33.0</gx:duration><gx:flyToMode>smooth</gx:flyToMode><Camera><longitude>-92.45625</longitude><latitude>39.63750</latitude><altitude>250</altitude><heading>90</heading><tilt>72</tilt><altitudeMode>relativeToGround</altitudeMode></Camera></gx:FlyTo><gx:FlyTo><gx:duration>17.8</gx:duration><gx:flyToMode>smooth</gx:flyToMode><Camera><longitude>-92.43750</longitude><latitude>39.63750</latitude><altitude>250</altitude><heading>90</heading><tilt>72</tilt><altitudeMode>relativeToGround</altitudeMode></Camera></gx:FlyTo><gx:FlyTo><gx:duration>17.8</gx:duration><gx:flyToMode>smooth</gx:flyToMode><Camera><longitude>-92.41875</longitude><latitude>39.63750</latitude><altitude>250</altitude><heading>105</heading><tilt>72</tilt><altitudeMode>relativeToGround</altitudeMode></Camera></gx:FlyTo><gx:FlyTo><gx:duration>17.8</gx:duration><gx:flyToMode>smooth</gx:flyToMode><Camera><longitude>-92.40000</longitude><latitude>39.63750</latitude><altitude>250</altitude><heading>113</heading><tilt>72</tilt><altitudeMode>relativeToGround</altitudeMode></Camera></gx:FlyTo><gx:FlyTo><gx:duration>17.8</gx:duration><gx:flyToMode>smooth</gx:flyToMode><Camera><longitude>-92.38125</longitude><latitude>39.63750</latitude><altitude>250</altitude><heading>119</heading><tilt>72</tilt><altitudeMode>relativeToGround</altitudeMode></Camera></gx:FlyTo><gx:Wait><gx:duration>2.5</gx:duration></gx:Wait><gx:FlyTo><gx:duration>48.1</gx:duration><gx:flyToMode>smooth</gx:flyToMode><Camera><longitude>-92.33600</longitude><latitude>39.62000</latitude><altitude>250</altitude><heading>130</heading><tilt>72</tilt><altitudeMode>relativeToGround</altitudeMode></Camera></gx:FlyTo><gx:Wait><gx:duration>2.5</gx:duration></gx:Wait><gx:FlyTo><gx:duration>13.6</gx:duration><gx:flyToMode>smooth</gx:flyToMode><Camera><longitude>-92.32500</longitude><latitude>39.61300</latitude><altitude>250</altitude><heading>130</heading><tilt>72</tilt><altitudeMode>relativeToGround</altitudeMode></Camera></gx:FlyTo><gx:Wait><gx:duration>2.5</gx:duration></gx:Wait><gx:FlyTo><gx:duration>5</gx:duration><gx:flyToMode>smooth</gx:flyToMode><LookAt><longitude>-92.325</longitude><latitude>39.613</latitude><altitude>0</altitude><heading>0</heading><tilt>45</tilt><range>1800</range><altitudeMode>relativeToGround</altitudeMode></LookAt></gx:FlyTo><gx:Wait><gx:duration>4</gx:duration></gx:Wait></gx:Playlist></gx:Tour>
<gx:Tour><name>Fly from Franklin</name><gx:Playlist><gx:FlyTo><gx:duration>1.5</gx:duration><gx:flyToMode>bounce</gx:flyToMode><Camera><longitude>-92.74500</longitude><latitude>38.99500</latitude><altitude>250</altitude><heading>1</heading><tilt>72</tilt><altitudeMode>relativeToGround</altitudeMode></Camera></gx:FlyTo><gx:Wait><gx:duration>2.5</gx:duration></gx:Wait><gx:FlyTo><gx:duration>22.1</gx:duration><gx:flyToMode>smooth</gx:flyToMode><Camera><longitude>-92.75000</longitude><latitude>39.01250</latitude><altitude>250</altitude><heading>4</heading><tilt>72</tilt><altitudeMode>relativeToGround</altitudeMode></Camera></gx:FlyTo><gx:FlyTo><gx:duration>31.4</gx:duration><gx:flyToMode>smooth</gx:flyToMode><Camera><longitude>-92.75625</longitude><latitude>39.03750</latitude><altitude>250</altitude><heading>15</heading><tilt>72</tilt><altitudeMode>relativeToGround</altitudeMode></Camera></gx:FlyTo><gx:FlyTo><gx:duration>33.1</gx:duration><gx:flyToMode>smooth</gx:flyToMode><Camera><longitude>-92.74375</longitude><latitude>39.06250</latitude><altitude>250</altitude><heading>4</heading><tilt>72</tilt><altitudeMode>relativeToGround</altitudeMode></Camera></gx:FlyTo><gx:FlyTo><gx:duration>30.8</gx:duration><gx:flyToMode>smooth</gx:flyToMode><Camera><longitude>-92.74375</longitude><latitude>39.08750</latitude><altitude>250</altitude><heading>356</heading><tilt>72</tilt><altitudeMode>relativeToGround</altitudeMode></Camera></gx:FlyTo><gx:FlyTo><gx:duration>33.1</gx:duration><gx:flyToMode>smooth</gx:flyToMode><Camera><longitude>-92.73125</longitude><latitude>39.11250</latitude><altitude>250</altitude><heading>353</heading><tilt>72</tilt><altitudeMode>relativeToGround</altitudeMode></Camera></gx:FlyTo><gx:FlyTo><gx:duration>31.4</gx:duration><gx:flyToMode>smooth</gx:flyToMode><Camera><longitude>-92.73750</longitude><latitude>39.13750</latitude><altitude>250</altitude><heading>4</heading><tilt>72</tilt><altitudeMode>relativeToGround</altitudeMode></Camera></gx:FlyTo><gx:FlyTo><gx:duration>33.1</gx:duration><gx:flyToMode>smooth</gx:flyToMode><Camera><longitude>-92.75000</longitude><latitude>39.16250</latitude><altitude>250</altitude><heading>26</heading><tilt>72</tilt><altitudeMode>relativeToGround</altitudeMode></Camera></gx:FlyTo><gx:FlyTo><gx:duration>31.4</gx:duration><gx:flyToMode>smooth</gx:flyToMode><Camera><longitude>-92.74375</longitude><latitude>39.18750</latitude><altitude>250</altitude><heading>30</heading><tilt>72</tilt><altitudeMode>relativeToGround</altitudeMode></Camera></gx:FlyTo><gx:FlyTo><gx:duration>19.5</gx:duration><gx:flyToMode>smooth</gx:flyToMode><Camera><longitude>-92.73125</longitude><latitude>39.20000</latitude><altitude>250</altitude><heading>21</heading><tilt>72</tilt><altitudeMode>relativeToGround</altitudeMode></Camera></gx:FlyTo><gx:FlyTo><gx:duration>19.5</gx:duration><gx:flyToMode>smooth</gx:flyToMode><Camera><longitude>-92.71875</longitude><latitude>39.21250</latitude><altitude>250</altitude><heading>18</heading><tilt>72</tilt><altitudeMode>relativeToGround</altitudeMode></Camera></gx:FlyTo><gx:FlyTo><gx:duration>33.1</gx:duration><gx:flyToMode>smooth</gx:flyToMode><Camera><longitude>-92.70625</longitude><latitude>39.23750</latitude><altitude>250</altitude><heading>21</heading><tilt>72</tilt><altitudeMode>relativeToGround</altitudeMode></Camera></gx:FlyTo><gx:FlyTo><gx:duration>31.4</gx:duration><gx:flyToMode>smooth</gx:flyToMode><Camera><longitude>-92.70000</longitude><latitude>39.26250</latitude><altitude>250</altitude><heading>42</heading><tilt>72</tilt><altitudeMode>relativeToGround</altitudeMode></Camera></gx:FlyTo><gx:FlyTo><gx:duration>33.1</gx:duration><gx:flyToMode>smooth</gx:flyToMode><Camera><longitude>-92.68750</longitude><latitude>39.28750</latitude><altitude>250</altitude><heading>72</heading><tilt>72</tilt><altitudeMode>relativeToGround</altitudeMode></Camera></gx:FlyTo><gx:FlyTo><gx:duration>19.5</gx:duration><gx:flyToMode>smooth</gx:flyToMode><Camera><longitude>-92.67500</longitude><latitude>39.30000</latitude><altitude>250</altitude><heading>90</heading><tilt>72</tilt><altitudeMode>relativeToGround</altitudeMode></Camera></gx:FlyTo><gx:FlyTo><gx:duration>17.9</gx:duration><gx:flyToMode>smooth</gx:flyToMode><Camera><longitude>-92.65625</longitude><latitude>39.30000</latitude><altitude>250</altitude><heading>90</heading><tilt>72</tilt><altitudeMode>relativeToGround</altitudeMode></Camera></gx:FlyTo><gx:FlyTo><gx:duration>17.9</gx:duration><gx:flyToMode>smooth</gx:flyToMode><Camera><longitude>-92.63750</longitude><latitude>39.30000</latitude><altitude>250</altitude><heading>90</heading><tilt>72</tilt><altitudeMode>relativeToGround</altitudeMode></Camera></gx:FlyTo><gx:FlyTo><gx:duration>17.9</gx:duration><gx:flyToMode>smooth</gx:flyToMode><Camera><longitude>-92.61875</longitude><latitude>39.30000</latitude><altitude>250</altitude><heading>90</heading><tilt>72</tilt><altitudeMode>relativeToGround</altitudeMode></Camera></gx:FlyTo><gx:FlyTo><gx:duration>17.9</gx:duration><gx:flyToMode>smooth</gx:flyToMode><Camera><longitude>-92.60000</longitude><latitude>39.30000</latitude><altitude>250</altitude><heading>90</heading><tilt>72</tilt><altitudeMode>relativeToGround</altitudeMode></Camera></gx:FlyTo><gx:FlyTo><gx:duration>17.9</gx:duration><gx:flyToMode>smooth</gx:flyToMode><Camera><longitude>-92.58125</longitude><latitude>39.30000</latitude><altitude>250</altitude><heading>90</heading><tilt>72</tilt><altitudeMode>relativeToGround</altitudeMode></Camera></gx:FlyTo><gx:FlyTo><gx:duration>17.9</gx:duration><gx:flyToMode>smooth</gx:flyToMode><Camera><longitude>-92.56250</longitude><latitude>39.30000</latitude><altitude>250</altitude><heading>72</heading><tilt>72</tilt><altitudeMode>relativeToGround</altitudeMode></Camera></gx:FlyTo><gx:FlyTo><gx:duration>17.9</gx:duration><gx:flyToMode>smooth</gx:flyToMode><Camera><longitude>-92.54375</longitude><latitude>39.30000</latitude><altitude>250</altitude><heading>42</heading><tilt>72</tilt><altitudeMode>relativeToGround</altitudeMode></Camera></gx:FlyTo><gx:FlyTo><gx:duration>17.9</gx:duration><gx:flyToMode>smooth</gx:flyToMode><Camera><longitude>-92.52500</longitude><latitude>39.30000</latitude><altitude>250</altitude><heading>30</heading><tilt>72</tilt><altitudeMode>relativeToGround</altitudeMode></Camera></gx:FlyTo><gx:FlyTo><gx:duration>19.5</gx:duration><gx:flyToMode>smooth</gx:flyToMode><Camera><longitude>-92.51250</longitude><latitude>39.31250</latitude><altitude>250</altitude><heading>42</heading><tilt>72</tilt><altitudeMode>relativeToGround</altitudeMode></Camera></gx:FlyTo><gx:FlyTo><gx:duration>33.1</gx:duration><gx:flyToMode>smooth</gx:flyToMode><Camera><longitude>-92.50000</longitude><latitude>39.33750</latitude><altitude>250</altitude><heading>54</heading><tilt>72</tilt><altitudeMode>relativeToGround</altitudeMode></Camera></gx:FlyTo><gx:FlyTo><gx:duration>19.5</gx:duration><gx:flyToMode>smooth</gx:flyToMode><Camera><longitude>-92.48750</longitude><latitude>39.35000</latitude><altitude>250</altitude><heading>42</heading><tilt>72</tilt><altitudeMode>relativeToGround</altitudeMode></Camera></gx:FlyTo><gx:FlyTo><gx:duration>17.9</gx:duration><gx:flyToMode>smooth</gx:flyToMode><Camera><longitude>-92.46875</longitude><latitude>39.35000</latitude><altitude>250</altitude><heading>21</heading><tilt>72</tilt><altitudeMode>relativeToGround</altitudeMode></Camera></gx:FlyTo><gx:FlyTo><gx:duration>19.5</gx:duration><gx:flyToMode>smooth</gx:flyToMode><Camera><longitude>-92.45625</longitude><latitude>39.36250</latitude><altitude>250</altitude><heading>11</heading><tilt>72</tilt><altitudeMode>relativeToGround</altitudeMode></Camera></gx:FlyTo><gx:FlyTo><gx:duration>33.1</gx:duration><gx:flyToMode>smooth</gx:flyToMode><Camera><longitude>-92.44375</longitude><latitude>39.38750</latitude><altitude>250</altitude><heading>7</heading><tilt>72</tilt><altitudeMode>relativeToGround</altitudeMode></Camera></gx:FlyTo><gx:FlyTo><gx:duration>31.4</gx:duration><gx:flyToMode>smooth</gx:flyToMode><Camera><longitude>-92.43750</longitude><latitude>39.41250</latitude><altitude>250</altitude><heading>4</heading><tilt>72</tilt><altitudeMode>relativeToGround</altitudeMode></Camera></gx:FlyTo><gx:Wait><gx:duration>2.5</gx:duration></gx:Wait><gx:FlyTo><gx:duration>30.8</gx:duration><gx:flyToMode>smooth</gx:flyToMode><Camera><longitude>-92.43750</longitude><latitude>39.43750</latitude><altitude>250</altitude><heading>0</heading><tilt>72</tilt><altitudeMode>relativeToGround</altitudeMode></Camera></gx:FlyTo><gx:FlyTo><gx:duration>31.4</gx:duration><gx:flyToMode>smooth</gx:flyToMode><Camera><longitude>-92.43125</longitude><latitude>39.46250</latitude><altitude>250</altitude><heading>353</heading><tilt>72</tilt><altitudeMode>relativeToGround</altitudeMode></Camera></gx:FlyTo><gx:FlyTo><gx:duration>30.8</gx:duration><gx:flyToMode>smooth</gx:flyToMode><Camera><longitude>-92.43125</longitude><latitude>39.48750</latitude><altitude>250</altitude><heading>346</heading><tilt>72</tilt><altitudeMode>relativeToGround</altitudeMode></Camera></gx:FlyTo><gx:FlyTo><gx:duration>31.4</gx:duration><gx:flyToMode>smooth</gx:flyToMode><Camera><longitude>-92.43750</longitude><latitude>39.51250</latitude><altitude>250</altitude><heading>342</heading><tilt>72</tilt><altitudeMode>relativeToGround</altitudeMode></Camera></gx:FlyTo><gx:FlyTo><gx:duration>31.4</gx:duration><gx:flyToMode>smooth</gx:flyToMode><Camera><longitude>-92.44375</longitude><latitude>39.53750</latitude><altitude>250</altitude><heading>346</heading><tilt>72</tilt><altitudeMode>relativeToGround</altitudeMode></Camera></gx:FlyTo><gx:FlyTo><gx:duration>33.0</gx:duration><gx:flyToMode>smooth</gx:flyToMode><Camera><longitude>-92.45625</longitude><latitude>39.56250</latitude><altitude>250</altitude><heading>0</heading><tilt>72</tilt><altitudeMode>relativeToGround</altitudeMode></Camera></gx:FlyTo><gx:FlyTo><gx:duration>33.0</gx:duration><gx:flyToMode>smooth</gx:flyToMode><Camera><longitude>-92.46875</longitude><latitude>39.58750</latitude><altitude>250</altitude><heading>26</heading><tilt>72</tilt><altitudeMode>relativeToGround</altitudeMode></Camera></gx:FlyTo><gx:Wait><gx:duration>2.5</gx:duration></gx:Wait><gx:FlyTo><gx:duration>30.8</gx:duration><gx:flyToMode>smooth</gx:flyToMode><Camera><longitude>-92.46875</longitude><latitude>39.61250</latitude><altitude>250</altitude><heading>57</heading><tilt>72</tilt><altitudeMode>relativeToGround</altitudeMode></Camera></gx:FlyTo><gx:Wait><gx:duration>2.5</gx:duration></gx:Wait><gx:Wait><gx:duration>2.5</gx:duration></gx:Wait><gx:FlyTo><gx:duration>33.0</gx:duration><gx:flyToMode>smooth</gx:flyToMode><Camera><longitude>-92.45625</longitude><latitude>39.63750</latitude><altitude>250</altitude><heading>90</heading><tilt>72</tilt><altitudeMode>relativeToGround</altitudeMode></Camera></gx:FlyTo><gx:FlyTo><gx:duration>17.8</gx:duration><gx:flyToMode>smooth</gx:flyToMode><Camera><longitude>-92.43750</longitude><latitude>39.63750</latitude><altitude>250</altitude><heading>90</heading><tilt>72</tilt><altitudeMode>relativeToGround</altitudeMode></Camera></gx:FlyTo><gx:FlyTo><gx:duration>17.8</gx:duration><gx:flyToMode>smooth</gx:flyToMode><Camera><longitude>-92.41875</longitude><latitude>39.63750</latitude><altitude>250</altitude><heading>105</heading><tilt>72</tilt><altitudeMode>relativeToGround</altitudeMode></Camera></gx:FlyTo><gx:FlyTo><gx:duration>17.8</gx:duration><gx:flyToMode>smooth</gx:flyToMode><Camera><longitude>-92.40000</longitude><latitude>39.63750</latitude><altitude>250</altitude><heading>113</heading><tilt>72</tilt><altitudeMode>relativeToGround</altitudeMode></Camera></gx:FlyTo><gx:FlyTo><gx:duration>17.8</gx:duration><gx:flyToMode>smooth</gx:flyToMode><Camera><longitude>-92.38125</longitude><latitude>39.63750</latitude><altitude>250</altitude><heading>119</heading><tilt>72</tilt><altitudeMode>relativeToGround</altitudeMode></Camera></gx:FlyTo><gx:Wait><gx:duration>2.5</gx:duration></gx:Wait><gx:FlyTo><gx:duration>48.1</gx:duration><gx:flyToMode>smooth</gx:flyToMode><Camera><longitude>-92.33600</longitude><latitude>39.62000</latitude><altitude>250</altitude><heading>130</heading><tilt>72</tilt><altitudeMode>relativeToGround</altitudeMode></Camera></gx:FlyTo><gx:Wait><gx:duration>2.5</gx:duration></gx:Wait><gx:FlyTo><gx:duration>13.6</gx:duration><gx:flyToMode>smooth</gx:flyToMode><Camera><longitude>-92.32500</longitude><latitude>39.61300</latitude><altitude>250</altitude><heading>130</heading><tilt>72</tilt><altitudeMode>relativeToGround</altitudeMode></Camera></gx:FlyTo><gx:Wait><gx:duration>2.5</gx:duration></gx:Wait><gx:FlyTo><gx:duration>5</gx:duration><gx:flyToMode>smooth</gx:flyToMode><LookAt><longitude>-92.325</longitude><latitude>39.613</latitude><altitude>0</altitude><heading>0</heading><tilt>45</tilt><range>1800</range><altitudeMode>relativeToGround</altitudeMode></LookAt></gx:FlyTo><gx:Wait><gx:duration>4</gx:duration></gx:Wait></gx:Playlist></gx:Tour>
<Folder><name>Routes</name><Placemark><name>High road from Rocheport</name><Style><LineStyle><color>ffa0e2e8</color><width>4</width></LineStyle></Style><LineString><tessellate>1</tessellate><altitudeMode>clampToGround</altitudeMode><coordinates>-92.56400,38.97900,0 -92.56250,39.00000,0 -92.55625,39.00000,0 -92.55000,39.00000,0 -92.54375,39.00000,0 -92.53750,39.00000,0 -92.53125,39.00000,0 -92.52500,39.00000,0 -92.51875,39.00000,0 -92.51250,39.00000,0 -92.50625,39.01250,0 -92.50000,39.02500,0 -92.50000,39.03750,0 -92.49375,39.05000,0 -92.48750,39.06250,0 -92.48750,39.07500,0 -92.48125,39.08750,0 -92.47500,39.10000,0 -92.47500,39.11250,0 -92.46875,39.12500,0 -92.46875,39.13750,0 -92.46875,39.15000,0 -92.46875,39.16250,0 -92.46875,39.17500,0 -92.46250,39.18750,0 -92.45625,39.20000,0 -92.45625,39.21250,0 -92.45000,39.22500,0 -92.45000,39.23750,0 -92.45000,39.25000,0 -92.45625,39.26250,0 -92.45625,39.27500,0 -92.45625,39.28750,0 -92.45625,39.30000,0 -92.45000,39.31250,0 -92.44375,39.32500,0 -92.44375,39.33750,0 -92.44375,39.35000,0 -92.44375,39.36250,0 -92.43750,39.37500,0 -92.43750,39.38750,0 -92.43750,39.40000,0 -92.43750,39.41250,0 -92.43750,39.42500,0 -92.43750,39.43750,0 -92.43125,39.45000,0 -92.43125,39.46250,0 -92.43125,39.47500,0 -92.43125,39.48750,0 -92.43750,39.50000,0 -92.43750,39.51250,0 -92.44375,39.52500,0 -92.44375,39.53750,0 -92.45000,39.55000,0 -92.45625,39.56250,0 -92.46250,39.57500,0 -92.46875,39.58750,0 -92.46875,39.60000,0 -92.46875,39.61250,0 -92.46250,39.62500,0 -92.45625,39.63750,0 -92.45000,39.63750,0 -92.44375,39.63750,0 -92.43750,39.63750,0 -92.43125,39.63750,0 -92.42500,39.63750,0 -92.41875,39.63750,0 -92.41250,39.63750,0 -92.40625,39.63750,0 -92.40000,39.63750,0 -92.39375,39.63750,0 -92.38750,39.63750,0 -92.38125,39.63750,0 -92.33600,39.62000,0 -92.32500,39.61300,0</coordinates></LineString></Placemark><Placemark><name>High road from Franklin</name><Style><LineStyle><color>ff30a8f0</color><width>4</width></LineStyle></Style><LineString><tessellate>1</tessellate><altitudeMode>clampToGround</altitudeMode><coordinates>-92.74500,38.99500,0 -92.74375,39.00000,0 -92.75000,39.01250,0 -92.75625,39.02500,0 -92.75625,39.03750,0 -92.75000,39.05000,0 -92.74375,39.06250,0 -92.74375,39.07500,0 -92.74375,39.08750,0 -92.73750,39.10000,0 -92.73125,39.11250,0 -92.73125,39.12500,0 -92.73750,39.13750,0 -92.74375,39.15000,0 -92.75000,39.16250,0 -92.75000,39.17500,0 -92.74375,39.18750,0 -92.73750,39.20000,0 -92.73125,39.20000,0 -92.72500,39.20000,0 -92.71875,39.21250,0 -92.71250,39.22500,0 -92.70625,39.23750,0 -92.70000,39.25000,0 -92.70000,39.26250,0 -92.69375,39.27500,0 -92.68750,39.28750,0 -92.68125,39.30000,0 -92.67500,39.30000,0 -92.66875,39.30000,0 -92.66250,39.30000,0 -92.65625,39.30000,0 -92.65000,39.30000,0 -92.64375,39.30000,0 -92.63750,39.30000,0 -92.63125,39.30000,0 -92.62500,39.30000,0 -92.61875,39.30000,0 -92.61250,39.30000,0 -92.60625,39.30000,0 -92.60000,39.30000,0 -92.59375,39.30000,0 -92.58750,39.30000,0 -92.58125,39.30000,0 -92.57500,39.30000,0 -92.56875,39.30000,0 -92.56250,39.30000,0 -92.55625,39.30000,0 -92.55000,39.30000,0 -92.54375,39.30000,0 -92.53750,39.30000,0 -92.53125,39.30000,0 -92.52500,39.30000,0 -92.51875,39.30000,0 -92.51250,39.31250,0 -92.50625,39.32500,0 -92.50000,39.33750,0 -92.49375,39.35000,0 -92.48750,39.35000,0 -92.48125,39.35000,0 -92.47500,39.35000,0 -92.46875,39.35000,0 -92.46250,39.35000,0 -92.45625,39.36250,0 -92.45000,39.37500,0 -92.44375,39.38750,0 -92.43750,39.40000,0 -92.43750,39.41250,0 -92.43750,39.42500,0 -92.43750,39.43750,0 -92.43125,39.45000,0 -92.43125,39.46250,0 -92.43125,39.47500,0 -92.43125,39.48750,0 -92.43750,39.50000,0 -92.43750,39.51250,0 -92.44375,39.52500,0 -92.44375,39.53750,0 -92.45000,39.55000,0 -92.45625,39.56250,0 -92.46250,39.57500,0 -92.46875,39.58750,0 -92.46875,39.60000,0 -92.46875,39.61250,0 -92.46250,39.62500,0 -92.45625,39.63750,0 -92.45000,39.63750,0 -92.44375,39.63750,0 -92.43750,39.63750,0 -92.43125,39.63750,0 -92.42500,39.63750,0 -92.41875,39.63750,0 -92.41250,39.63750,0 -92.40625,39.63750,0 -92.40000,39.63750,0 -92.39375,39.63750,0 -92.38750,39.63750,0 -92.38125,39.63750,0 -92.33600,39.62000,0 -92.32500,39.61300,0</coordinates></LineString></Placemark></Folder>
<Folder><name>Henry's land</name><Placemark><name>1837 patent, SW1/4 NE1/4 Sec. 35</name><Style><LineStyle><color>ff30a8f0</color><width>3</width></LineStyle><PolyStyle><color>4030a8f0</color></PolyStyle></Style><Polygon><tessellate>1</tessellate><outerBoundaryIs><LinearRing><coordinates>-92.32737,39.61303,0 -92.32269,39.61298,0 -92.3226,39.6166,0 -92.32728,39.61666,0 -92.32737,39.61303,0</coordinates></LinearRing></outerBoundaryIs></Polygon></Placemark><Placemark><name>1838 patent, NW1/4 SE1/4 Sec. 35</name><Style><LineStyle><color>ff30a8f0</color><width>3</width></LineStyle><PolyStyle><color>4030a8f0</color></PolyStyle></Style><Polygon><tessellate>1</tessellate><outerBoundaryIs><LinearRing><coordinates>-92.32747,39.60942,0 -92.32278,39.60936,0 -92.32269,39.61298,0 -92.32737,39.61303,0 -92.32747,39.60942,0</coordinates></LinearRing></outerBoundaryIs></Polygon></Placemark></Folder>
<Folder><name>Places</name><Placemark><name>Rocheport</name><description><![CDATA[Likeliest landing: north bank, ferry since 1819, platted 1832.]]></description><Point><coordinates>-92.564,38.979,0</coordinates></Point></Placemark><Placemark><name>Franklin</name><description><![CDATA[The famous trailhead; Old Franklin flooded out by about 1828.]]></description><Point><coordinates>-92.745,38.995,0</coordinates></Point></Placemark><Placemark><name>Fayette</name><description><![CDATA[Howard County uplands.]]></description><Point><coordinates>-92.683,39.146,0</coordinates></Point></Placemark><Placemark><name>Huntsville</name><description><![CDATA[Off the divide, about 100 ft below the crest. Alan grew up here.]]></description><Point><coordinates>-92.545,39.441,0</coordinates></Point></Placemark><Placemark><name>Moberly</name><description><![CDATA["The highest point between Hannibal and Brunswick" (Waller, 1920). Alan was born here.]]></description><Point><coordinates>-92.436,39.42,0</coordinates></Point></Placemark><Placemark><name>Jacksonville</name><description><![CDATA[Jackson Township: in 1837 "a road ran north and south through the township, called the Bee Trace" (Waller).]]></description><Point><coordinates>-92.471,39.588,0</coordinates></Point></Placemark><Placemark><name>Dan's farm, winter 1995-96</name><description><![CDATA[On the crest. Christmas Day 1995, Earl told the wagon story.]]></description><Point><coordinates>-92.4794674,39.6073602,0</coordinates></Point></Placemark><Placemark><name>The Narrows</name><description><![CDATA[Narrowest part of the Grand Divide; Narrows Township.]]></description><Point><coordinates>-92.468,39.612,0</coordinates></Point></Placemark><Placemark><name>Mount Salem Cemetery</name><description><![CDATA[Five generations, 1881-2015.]]></description><Point><coordinates>-92.4867,39.6227,0</coordinates></Point></Placemark><Placemark><name>Excello</name><description><![CDATA[Wabash depot from the 1880s.]]></description><Point><coordinates>-92.476,39.636,0</coordinates></Point></Placemark><Placemark><name>Cox</name><description><![CDATA[Post office 1887-1907. Gone now.]]></description><Point><coordinates>-92.383,39.637,0</coordinates></Point></Placemark><Placemark><name>Woodville</name><description><![CDATA["Drive east from Excello a few miles and the Y's." Earl's directions.]]></description><Point><coordinates>-92.336,39.62,0</coordinates></Point></Placemark><Placemark><name>Henry's land, 1837-38</name><description><![CDATA[Two 40-acre patents, Section 35, T56N R13W.]]></description><Point><coordinates>-92.325,39.613,0</coordinates></Point></Placemark></Folder>
</Document></kml>